{"type": "FeatureCollection", "features": [ {"type": "Feature", "properties": {"norad_id": 36539, "name": "COSMOS 2251 DEB", "group": "cosmos-2251-debris", "lat": -16.31287150467589, "lon": 46.323627151986926, "alt_km": 715.9733926787167, "timestamp": "2025-12-14T20:40:32.170375+00:00", "meta": {"OBJECT_NAME": "COSMOS 2251 DEB", "OBJECT_ID": "1993-036BCZ", "EPOCH": "2025-12-14T04:18:02.935296", "MEAN_MOTION": 14.5931612, "ECCENTRICITY": 0.00271196, "INCLINATION": 74.0243, "RA_OF_ASC_NODE": 52.4339, "ARG_OF_PERICENTER": 197.3898, "MEAN_ANOMALY": 162.6341, "EPHEMERIS_TYPE": 0, "CLASSIFICATION_TYPE": "U", "NORAD_CAT_ID": 36539, "ELEMENT_SET_NO": 999, "REV_AT_EPOCH": 83968, "BSTAR": 0.00080291517, "MEAN_MOTION_DOT": 3.787e-05, "MEAN_MOTION_DDOT": 0}, "tle": {"line1": "1 36539U 93036BCZ 25348.17920064  .00003787  00000+0  80292-3 0  9996", "line2": "2 36539  74.0243  52.4339 0027119 197.3898 162.6341 14.59316120839688"}}, "geometry": {"type": "Point", "coordinates": [46.323627151986926, -16.31287150467589]}}, {"type": "Feature", "properties": {"norad_id": 36540, "name": "COSMOS 2251 DEB", "group": "cosmos-2251-debris", "lat": -57.50188926070774, "lon": 149.7612398799701, "alt_km": 698.2738534435839, "timestamp": "2025-12-14T20:40:32.170385+00:00", "meta": {"OBJECT_NAME": "COSMOS 2251 DEB", "OBJECT_ID": "1993-036BDA", "EPOCH": "2025-12-13T18:37:01.077024", "MEAN_MOTION": 14.58495892, "ECCENTRICITY": 0.00149508, "INCLINATION": 74.0294, "RA_OF_ASC_NODE": 178.5434, "ARG_OF_PERICENTER": 248.6284, "MEAN_ANOMALY": 111.3286, "EPHEMERIS_TYPE": 0, "CLASSIFICATION_TYPE": "U", "NORAD_CAT_ID": 36540, "ELEMENT_SET_NO": 999, "REV_AT_EPOCH": 86025, "BSTAR": 0.0012951395, "MEAN_MOTION_DOT": 6e-05, "MEAN_MOTION_DDOT": 0}, "tle": {"line1": "1 36540U 93036BDA 25347.77570691  .00006000  00000+0  12951-2 0  9997", "line2": "2 36540  74.0294 178.5434 0014950 248.6284 111.3286 14.58495892860259"}}, "geometry": {"type": "Point", "coordinates": [149.7612398799701, -57.50188926070774]}}, {"type": "Feature", "properties": {"norad_id": 36550, "name": "COSMOS 2251 DEB", "group": "cosmos-2251-debris", "lat": -71.30809191645784, "lon": 66.64452453933524, "alt_km": 755.4579649948846, "timestamp": "2025-12-14T20:40:32.170395+00:00", "meta": {"OBJECT_NAME": "COSMOS 2251 DEB", "OBJECT_ID": "1993-036BDL", "EPOCH": "2025-12-12T06:53:46.055040", "MEAN_MOTION": 14.27197589, "ECCENTRICITY": 0.00783785, "INCLINATION": 74.0439, "RA_OF_ASC_NODE": 193.5589, "ARG_OF_PERICENTER": 244.3101, "MEAN_ANOMALY": 114.994, "EPHEMERIS_TYPE": 0, "CLASSIFICATION_TYPE": "U", "NORAD_CAT_ID": 36550, "ELEMENT_SET_NO": 999, "REV_AT_EPOCH": 84589, "BSTAR": 0.00090622054, "MEAN_MOTION_DOT": 2.261e-05, "MEAN_MOTION_DDOT": 0}, "tle": {"line1": "1 36550U 93036BDL 25346.28733860  .00002261  00000+0  90622-3 0  9999", "line2": "2 36550  74.0439 193.5589 0078378 244.3101 114.9940 14.27197589845891"}}, "geometry": {"type": "Point", "coordinates": [66.64452453933524, -71.30809191645784]}}, {"type": "Feature", "properties": {"norad_id": 36551, "name": "COSMOS 2251 DEB", "group": "cosmos-2251-debris", "lat": 8.040155651548996, "lon": -172.0040136464172, "alt_km": 589.8732600063868, "timestamp": "2025-12-14T20:40:32.170405+00:00", "meta": {"OBJECT_NAME": "COSMOS 2251 DEB", "OBJECT_ID": "1993-036BDM", "EPOCH": "2025-12-12T08:47:24.108864", "MEAN_MOTION": 15.02551083, "ECCENTRICITY": 0.00509575, "INCLINATION": 73.8872, "RA_OF_ASC_NODE": 15.4722, "ARG_OF_PERICENTER": 324.547, "MEAN_ANOMALY": 35.2333, "EPHEMERIS_TYPE": 0, "CLASSIFICATION_TYPE": "U", "NORAD_CAT_ID": 36551, "ELEMENT_SET_NO": 999, "REV_AT_EPOCH": 66926, "BSTAR": 0.0018916563, "MEAN_MOTION_DOT": 0.00025929, "MEAN_MOTION_DDOT": 0}, "tle": {"line1": "1 36551U 93036BDM 25346.36625126  .00025929  00000+0  18917-2 0  9996", "line2": "2 36551  73.8872  15.4722 0050957 324.5470  35.2333 15.02551083669267"}}, "geometry": {"type": "Point", "coordinates": [-172.0040136464172, 8.040155651548996]}}, {"type": "Feature", "properties": {"norad_id": 36557, "name": "COSMOS 2251 DEB", "group": "cosmos-2251-debris", "lat": -29.678143961800895, "lon": 112.64346850265535, "alt_km": 631.3632856624581, "timestamp": "2025-12-14T20:40:32.170415+00:00", "meta": {"OBJECT_NAME": "COSMOS 2251 DEB", "OBJECT_ID": "1993-036BDT", "EPOCH": "2025-12-14T02:57:01.048320", "MEAN_MOTION": 14.78340641, "ECCENTRICITY": 0.0021568, "INCLINATION": 73.9788, "RA_OF_ASC_NODE": 123.5235, "ARG_OF_PERICENTER": 275.624, "MEAN_ANOMALY": 84.2475, "EPHEMERIS_TYPE": 0, "CLASSIFICATION_TYPE": "U", "NORAD_CAT_ID": 36557, "ELEMENT_SET_NO": 999, "REV_AT_EPOCH": 33917, "BSTAR": 0.0036752981, "MEAN_MOTION_DOT": 0.00026914, "MEAN_MOTION_DDOT": 0}, "tle": {"line1": "1 36557U 93036BDT 25348.12292880  .00026914  00000+0  36753-2 0  9998", "line2": "2 36557  73.9788 123.5235 0021568 275.6240  84.2475 14.78340641339170"}}, "geometry": {"type": "Point", "coordinates": [112.64346850265535, -29.678143961800895]}}, {"type": "Feature", "properties": {"norad_id": 36558, "name": "COSMOS 2251 DEB", "group": "cosmos-2251-debris", "lat": 73.84675802237646, "lon": -110.56237937833588, "alt_km": 708.293969109599, "timestamp": "2025-12-14T20:40:32.170424+00:00", "meta": {"OBJECT_NAME": "COSMOS 2251 DEB", "OBJECT_ID": "1993-036BDU", "EPOCH": "2025-12-13T04:39:28.280448", "MEAN_MOTION": 14.5536689, "ECCENTRICITY": 0.00129076, "INCLINATION": 74.0417, "RA_OF_ASC_NODE": 153.6824, "ARG_OF_PERICENTER": 242.3004, "MEAN_ANOMALY": 117.6851, "EPHEMERIS_TYPE": 0, "CLASSIFICATION_TYPE": "U", "NORAD_CAT_ID": 36558, "ELEMENT_SET_NO": 999, "REV_AT_EPOCH": 85275, "BSTAR": 0.0014840285, "MEAN_MOTION_DOT": 6.426e-05, "MEAN_MOTION_DDOT": 0}, "tle": {"line1": "1 36558U 93036BDU 25347.19407732  .00006426  00000+0  14840-2 0  9998", "line2": "2 36558  74.0417 153.6824 0012907 242.3004 117.6851 14.55366890852758"}}, "geometry": {"type": "Point", "coordinates": [-110.56237937833588, 73.84675802237646]}}, {"type": "Feature", "properties": {"norad_id": 36559, "name": "COSMOS 2251 DEB", "group": "cosmos-2251-debris", "lat": -8.390790333576353, "lon": -171.4112879148346, "alt_km": 1077.2703668095955, "timestamp": "2025-12-14T20:40:32.170435+00:00", "meta": {"OBJECT_NAME": "COSMOS 2251 DEB", "OBJECT_ID": "1993-036BDV", "EPOCH": "2025-12-14T00:51:41.680512", "MEAN_MOTION": 13.95210735, "ECCENTRICITY": 0.02601277, "INCLINATION": 74.1314, "RA_OF_ASC_NODE": 7.5943, "ARG_OF_PERICENTER": 40.0382, "MEAN_ANOMALY": 321.9607, "EPHEMERIS_TYPE": 0, "CLASSIFICATION_TYPE": "U", "NORAD_CAT_ID": 36559, "ELEMENT_SET_NO": 999, "REV_AT_EPOCH": 81112, "BSTAR": 0.0033678154, "MEAN_MOTION_DOT": 6.019e-05, "MEAN_MOTION_DDOT": 0}, "tle": {"line1": "1 36559U 93036BDV 25348.03589908  .00006019  00000+0  33678-2 0  9997", "line2": "2 36559  74.1314   7.5943 0260127  40.0382 321.9607 13.95210735811120"}}, "geometry": {"type": "Point", "coordinates": [-171.4112879148346, -8.390790333576353]}}, {"type": "Feature", "properties": {"norad_id": 36614, "name": "COSMOS 2251 DEB", "group": "cosmos-2251-debris", "lat": 31.745916577994347, "lon": -19.67735572206234, "alt_km": 690.5326239988763, "timestamp": "2025-12-14T20:40:32.170445+00:00", "meta": {"OBJECT_NAME": "COSMOS 2251 DEB", "OBJECT_ID": "1993-036BEC", "EPOCH": "2025-12-11T06:30:21.400992", "MEAN_MOTION": 14.60233542, "ECCENTRICITY": 0.00161993, "INCLINATION": 74.0218, "RA_OF_ASC_NODE": 177.391, "ARG_OF_PERICENTER": 247.2616, "MEAN_ANOMALY": 112.6838, "EPHEMERIS_TYPE": 0, "CLASSIFICATION_TYPE": "U", "NORAD_CAT_ID": 36614, "ELEMENT_SET_NO": 999, "REV_AT_EPOCH": 65591, "BSTAR": 0.0024222077, "MEAN_MOTION_DOT": 0.00011696, "MEAN_MOTION_DDOT": 0}, "tle": {"line1": "1 36614U 93036BEC 25345.27108103  .00011696  00000+0  24222-2 0  9998", "line2": "2 36614  74.0218 177.3910 0016199 247.2616 112.6838 14.60233542655911"}}, "geometry": {"type": "Point", "coordinates": [-19.67735572206234, 31.745916577994347]}}, {"type": "Feature", "properties": {"norad_id": 36622, "name": "COSMOS 2251 DEB", "group": "cosmos-2251-debris", "lat": -25.346395380706785, "lon": 133.5125846942317, "alt_km": 620.3163182671851, "timestamp": "2025-12-14T20:40:32.170454+00:00", "meta": {"OBJECT_NAME": "COSMOS 2251 DEB", "OBJECT_ID": "1993-036BEL", "EPOCH": "2025-12-13T04:07:59.528928", "MEAN_MOTION": 14.76203873, "ECCENTRICITY": 0.00688136, "INCLINATION": 74.0135, "RA_OF_ASC_NODE": 144.6283, "ARG_OF_PERICENTER": 279.9599, "MEAN_ANOMALY": 79.3813, "EPHEMERIS_TYPE": 0, "CLASSIFICATION_TYPE": "U", "NORAD_CAT_ID": 36622, "ELEMENT_SET_NO": 999, "REV_AT_EPOCH": 66756, "BSTAR": 0.0010024349, "MEAN_MOTION_DOT": 7.182e-05, "MEAN_MOTION_DDOT": 0}, "tle": {"line1": "1 36622U 93036BEL 25347.17221677  .00007182  00000+0  10024-2 0  9990", "line2": "2 36622  74.0135 144.6283 0068813 279.9599  79.3813 14.76203873667567"}}, "geometry": {"type": "Point", "coordinates": [133.5125846942317, -25.346395380706785]}}, {"type": "Feature", "properties": {"norad_id": 36632, "name": "COSMOS 2251 DEB", "group": "cosmos-2251-debris", "lat": -58.797370940353574, "lon": 136.69420344015884, "alt_km": 775.1027183185033, "timestamp": "2025-12-14T20:40:32.170464+00:00", "meta": {"OBJECT_NAME": "COSMOS 2251 DEB", "OBJECT_ID": "1993-036BEW", "EPOCH": "2025-12-13T13:36:30.735360", "MEAN_MOTION": 14.43181896, "ECCENTRICITY": 0.00321339, "INCLINATION": 74.0018, "RA_OF_ASC_NODE": 290.8293, "ARG_OF_PERICENTER": 38.3996, "MEAN_ANOMALY": 321.9438, "EPHEMERIS_TYPE": 0, "CLASSIFICATION_TYPE": "U", "NORAD_CAT_ID": 36632, "ELEMENT_SET_NO": 999, "REV_AT_EPOCH": 65227, "BSTAR": 0.0011350112, "MEAN_MOTION_DOT": 3.814e-05, "MEAN_MOTION_DDOT": 0}, "tle": {"line1": "1 36632U 93036BEW 25347.56702240  .00003814  00000+0  11350-2 0  9995", "line2": "2 36632  74.0018 290.8293 0032133  38.3996 321.9438 14.43181896652272"}}, "geometry": {"type": "Point", "coordinates": [136.69420344015884, -58.797370940353574]}}]}